OCEANSAT-2              
1 35931U 09051A   26194.86385675 -.00000114  00000+0 -52168-4 0  9999
2 35931  98.2319 179.0519 0017256 157.3305 202.8627 13.99656168883068
WORLDVIEW-2 (WV-2)      
1 35946U 09055A   26194.81519134  .00000034  00000+0  25537-4 0  9992
2 35946  98.4757 267.9023 0005258 133.2074 226.9552 14.37906676879473
SMOS                    
1 36036U 09059A   26194.52846771  .00000146  00000+0  60358-4 0  9999
2 36036  98.4427  21.4773 0001141  95.9908 264.1411 14.39735488877244
YAOGAN-7                
1 36110U 09069A   26194.69442023  .00000223  00000+0  38073-4 0  9998
2 36110  98.0035  80.3936 0023604 316.4079  43.5266 14.78034681893549
TANDEM-X                
1 36605U 10030A   26188.47915494  .00000386  00000+0  21566-4 0  9992
2 36605  97.4457 195.8973 0001887  94.3019 265.8431 15.19154052889726
CARTOSAT-2B             
1 36795U 10035A   26194.86667203  .00000049  00000+0  13868-4 0  9991
2 36795  97.9947 245.2433 0012573 102.9282 257.3334 14.78615628863790
YAOGAN-10               
1 36834U 10038A   26194.90357818  .00000930  00000+0  11421-3 0  9992
2 36834  97.8972 218.0944 0001597  84.7087  35.9467 14.85425815861172
COSMO-SKYMED 4          
1 37216U 10060A   26194.84036209 -.00000039  00000+0  16968-5 0  9997
2 37216  97.8890  18.0548 0001503  84.9569 275.1816 14.82147588848512
RESOURCESAT-2           
1 37387U 11015A   26194.76410153  .00000030  00000+0  33701-4 0  9995
2 37387  98.7633 262.0207 0011518 175.1171 185.0120 14.21605668789958
HAIYANG-2A              
1 37781U 11043A   26194.90959392 -.00000086  00000+0 -45445-4 0  9994
2 37781  99.3397 196.9743 0002566  32.0641 328.0664 13.73412242750327
RASAT                   
1 37791U 11044D   26194.84138869  .00000250  00000+0  51852-4 0  9997
2 37791  98.0583 285.8319 0021899 106.6978  41.0175 14.68191825797099
SRMSAT                  
1 37841U 11058D   26194.45621951  .00000344  00000+0  42889-4 0  9998
2 37841  19.9713 260.4725 0011810 132.1672 338.6137 14.11580880761533
PLEIADES 1A             
1 38012U 11076F   26194.87903226  .00000110  00000+0  33490-4 0  9992
2 38012  98.1975 269.6220 0001701  79.3450 334.7352 14.58546266775888
ZIYUAN 1-02C (ZY 1-02C) 
1 38038U 11079A   26194.87243843  .00000249  00000+0  96052-4 0  9991
2 38038  98.4069 261.6216 0005495 219.3929 266.0297 14.38234982763048
ARIRANG-3 (KOMPSAT-3)   
1 38338U 12025B   26194.85728111  .00000190  00000+0  46926-4 0  9990
2 38338  98.1184 151.8595 0006299  42.3379 317.8307 14.62228381755245
EXACTVIEW-1 (ADS-1B)    
1 38709U 12039C   26194.85247875  .00000032  00000+0  33433-4 0  9994
2 38709  98.9803 312.8484 0011948  95.0194 265.2349 14.24992027726508
SPOT 6                  
1 38755U 12047A   26194.81551569  .00000017  00000+0  13497-4 0  9999
2 38755  98.2115 261.8108 0001124  83.1764 276.9563 14.58537838736937
PLEIADES 1B             
1 39019U 12068A   26194.83410682  .00000040  00000+0  18466-4 0  9995
2 39019  98.1947 269.5176 0001606  78.9653 281.1727 14.58533503724737
GOKTURK 2               
1 39030U 12073A   26194.79888892  .00000554  00000+0  88236-4 0  9993
2 39030  97.6812  30.8959 0000918  88.8993 271.2322 14.75568931728439
LANDSAT 8               
1 39084U 13008A   26194.80600152  .00000147  00000+0  42777-4 0  9992
2 39084  98.2291 264.6236 0001334  94.4722 265.6629 14.57111267701778
SARAL                   
1 39086U 13009A   26194.85557470  .00000040  00000+0  30836-4 0  9999
2 39086  98.5554  21.0855 0001618 169.9712 190.1505 14.32895594699427
GAOFEN-1                
1 39150U 13018A   26194.83125817  .00000408  00000+0  65730-4 0  9994
2 39150  97.9092 266.3560 0016933 175.4782 184.6584 14.76517851712179
VNREDSAT 1              
1 39160U 13021B   26194.86513971  .00000346  00000+0  73185-4 0  9998
2 39160  97.9074 247.2555 0001619  79.5188 280.6198 14.64883114704197
ARIRANG-5 (KOMPSAT-5)   
1 39227U 13042A   26194.83585225  .00000558  00000+0  44161-4 0  9990
2 39227  97.6210  21.1626 0005578  62.5824 297.5969 15.04524289707865
SKYSAT-A                
1 39418U 13066C   26194.71089617  .00001517  00000+0  88898-4 0  9990
2 39418  97.3804 243.2628 0020324 218.8459 141.1313 15.13110264692491
DUBAISAT-2              
1 39419U 13066D   26194.90396903  .00002342  00000+0  14638-3 0  9998
2 39419  97.4573 184.3523 0009565 307.8174  52.2189 15.10371223690427
GPM-CORE                
1 39574U 14009C   26194.81625701  .00003455  00000+0  78154-4 0  9999
2 39574  64.9692 218.9083 0010989 261.5797  98.4098 15.45033155701920
SENTINEL-1A             
1 39634U 14016A   26194.90461613 -.00000062  00000+0 -34177-5 0  9995
2 39634  98.1781 202.0472 0001445  87.1090 273.0275 14.59200223653915
KAZEOSAT 1              
1 39731U 14024A   26194.80442498  .00000032  00000+0  22842-4 0  9991
2 39731  98.3205 266.5879 0001250  81.1285 279.0046 14.42036735642395
ALOS-2                  
1 39766U 14029A   26194.85414749  .00000855  00000+0  12134-3 0  9992
2 39766  97.9230 291.6367 0001597  91.6484 268.4911 14.79472600655525
KAZEOSAT 2              
1 40010U 14033A   26194.83710486  .00000435  00000+0  56175-4 0  9994
2 40010  97.5395  33.0400 0007346 224.7585 135.3039 14.85499019652915
