OBJECT_NAME,OBJECT_ID,EPOCH,MEAN_MOTION,ECCENTRICITY,INCLINATION,RA_OF_ASC_NODE,ARG_OF_PERICENTER,MEAN_ANOMALY,EPHEMERIS_TYPE,CLASSIFICATION_TYPE,NORAD_CAT_ID,ELEMENT_SET_NO,REV_AT_EPOCH,BSTAR,MEAN_MOTION_DOT,MEAN_MOTION_DDOT
OCEANSAT-2,2009-051A,2026-07-13T20:43:57.223200,13.99656168,.0017256,98.2319,179.0519,157.3305,202.8627,0,U,35931,999,88306,-.52168E-4,-.114E-5,0
WORLDVIEW-2 (WV-2),2009-055A,2026-07-13T19:33:52.531776,14.37906676,.0005258,98.4757,267.9023,133.2074,226.9552,0,U,35946,999,87947,.25537E-4,.34E-6,0
SMOS,2009-059A,2026-07-13T12:40:59.610144,14.39735488,.0001141,98.4427,21.4773,95.9908,264.1411,0,U,36036,999,87724,.60358E-4,.146E-5,0
YAOGAN-7,2009-069A,2026-07-13T16:39:57.907872,14.78034681,.0023604,98.0035,80.3936,316.4079,43.5266,0,U,36110,999,89354,.38073E-4,.223E-5,0
TANDEM-X,2010-030A,2026-07-07T11:29:58.986816,15.19154052,.0001887,97.4457,195.8973,94.3019,265.8431,0,U,36605,999,88972,.21566E-4,.386E-5,0
CARTOSAT-2B,2010-035A,2026-07-13T20:48:00.463392,14.78615628,.0012573,97.9947,245.2433,102.9282,257.3334,0,U,36795,999,86379,.13868E-4,.49E-6,0
YAOGAN-10,2010-038A,2026-07-13T21:41:09.154752,14.85425815,.0001597,97.8972,218.0944,84.7087,35.9467,0,U,36834,999,86117,.11421E-3,.93E-5,0
COSMO-SKYMED 4,2010-060A,2026-07-13T20:10:07.284576,14.82147588,.0001503,97.8890,18.0548,84.9569,275.1816,0,U,37216,999,84851,.16968E-5,-.39E-6,0
RESOURCESAT-2,2011-015A,2026-07-13T18:20:18.372192,14.21605668,.0011518,98.7633,262.0207,175.1171,185.0120,0,U,37387,999,78995,.33701E-4,.3E-6,0
HAIYANG-2A,2011-043A,2026-07-13T21:49:48.914688,13.73412242,.0002566,99.3397,196.9743,32.0641,328.0664,0,U,37781,999,75032,-.45445E-4,-.86E-6,0
RASAT,2011-044D,2026-07-13T20:11:35.982816,14.68191825,.0021899,98.0583,285.8319,106.6978,41.0175,0,U,37791,999,79709,.51852E-4,.25E-5,0
SRMSAT,2011-058D,2026-07-13T10:56:57.365664,14.11580880,.00118107,19.9713,260.4725,132.1672,338.6137,0,U,37841,999,76153,.42888582E-4,.344E-5,0
PLEIADES 1A,2011-076F,2026-07-13T21:05:48.387264,14.58546266,.0001701,98.1975,269.6220,79.3450,334.7352,0,U,38012,999,77588,.3349E-4,.11E-5,0
ZIYUAN 1-02C (ZY 1-02C),2011-079A,2026-07-13T20:56:18.680352,14.38234982,.0005495,98.4069,261.6216,219.3929,266.0297,0,U,38038,999,76304,.96052E-4,.249E-5,0
ARIRANG-3 (KOMPSAT-3),2012-025B,2026-07-13T20:34:29.087904,14.62228381,.0006299,98.1184,151.8595,42.3379,317.8307,0,U,38338,999,75524,.46926E-4,.19E-5,0
EXACTVIEW-1 (ADS-1B),2012-039C,2026-07-13T20:27:34.164000,14.24992027,.0011948,98.9803,312.8484,95.0194,265.2349,0,U,38709,999,72650,.33433E-4,.32E-6,0
SPOT 6,2012-047A,2026-07-13T19:34:20.555616,14.58537838,.0001124,98.2115,261.8108,83.1764,276.9563,0,U,38755,999,73693,.13497E-4,.17E-6,0
PLEIADES 1B,2012-068A,2026-07-13T20:01:06.829248,14.58533503,.0001606,98.1947,269.5176,78.9653,281.1727,0,U,39019,999,72473,.18466E-4,.4E-6,0
GOKTURK 2,2012-073A,2026-07-13T19:10:24.002688,14.75568931,.0000918,97.6812,30.8959,88.8993,271.2322,0,U,39030,999,72843,.88236E-4,.554E-5,0
LANDSAT 8,2013-008A,2026-07-13T19:20:38.531328,14.57111267,.0001334,98.2291,264.6236,94.4722,265.6629,0,U,39084,999,70177,.42777E-4,.147E-5,0
SARAL,2013-009A,2026-07-13T20:32:01.654080,14.32895594,.0001618,98.5554,21.0855,169.9712,190.1505,0,U,39086,999,69942,.30836E-4,.4E-6,0
GAOFEN-1,2013-018A,2026-07-13T19:57:00.705888,14.76517851,.0016933,97.9092,266.3560,175.4782,184.6584,0,U,39150,999,71217,.6573E-4,.408E-5,0
VNREDSAT 1,2013-021B,2026-07-13T20:45:48.070944,14.64883114,.0001619,97.9074,247.2555,79.5188,280.6198,0,U,39160,999,70419,.73185E-4,.346E-5,0
ARIRANG-5 (KOMPSAT-5),2013-042A,2026-07-13T20:03:37.634400,15.04524289,.0005578,97.6210,21.1626,62.5824,297.5969,0,U,39227,999,70786,.44161E-4,.558E-5,0
SKYSAT-A,2013-066C,2026-07-13T17:03:41.429088,15.13110264,.0020324,97.3804,243.2628,218.8459,141.1313,0,U,39418,999,69249,.88898E-4,.1517E-4,0
DUBAISAT-2,2013-066D,2026-07-13T21:41:42.924192,15.10371223,.0009565,97.4573,184.3523,307.8174,52.2189,0,U,39419,999,69042,.14638E-3,.2342E-4,0
GPM-CORE,2014-009C,2026-07-13T19:35:24.605664,15.45033155,.0010989,64.9692,218.9083,261.5797,98.4098,0,U,39574,999,70192,.78154E-4,.3455E-4,0
SENTINEL-1A,2014-016A,2026-07-13T21:42:38.833632,14.59200223,.0001445,98.1781,202.0472,87.1090,273.0275,0,U,39634,999,65391,-.34177E-5,-.62E-6,0
KAZEOSAT 1,2014-024A,2026-07-13T19:18:22.318272,14.42036735,.000125,98.3205,266.5879,81.1285,279.0046,0,U,39731,999,64239,.22842E-4,.32E-6,0
ALOS-2,2014-029A,2026-07-13T20:29:58.343136,14.79472600,.0001597,97.9230,291.6367,91.6484,268.4911,0,U,39766,999,65552,.12134E-3,.855E-5,0
KAZEOSAT 2,2014-033A,2026-07-13T20:05:25.859904,14.85499019,.0007346,97.5395,33.0400,224.7585,135.3039,0,U,40010,999,65291,.56175E-4,.435E-5,0
